<?xml version="1.0" encoding="UTF-8"?>
<ndm xmlns:xsi="http://www.w3.org/2001/XMLSchema-instance" xsi:noNamespaceSchemaLocation="https://sanaregistry.org/r/ndmxml_unqualified/ndmxml-2.0.0-master-2.0.xsd">
<omm id="CCSDS_OMM_VERS" version="2.0">
<header><CREATION_DATE/><ORIGINATOR/></header><body><segment><metadata><OBJECT_NAME>KUIPER-00071</OBJECT_NAME><OBJECT_ID>2025-151C</OBJECT_ID><CENTER_NAME>EARTH</CENTER_NAME><REF_FRAME>TEME</REF_FRAME><TIME_SYSTEM>UTC</TIME_SYSTEM><MEAN_ELEMENT_THEORY>SGP4</MEAN_ELEMENT_THEORY></metadata><data><meanElements><EPOCH>2025-09-21T14:00:01.999872</EPOCH><MEAN_MOTION>14.82967750</MEAN_MOTION><ECCENTRICITY>.00073937</ECCENTRICITY><INCLINATION>51.8992</INCLINATION><RA_OF_ASC_NODE>330.9108</RA_OF_ASC_NODE><ARG_OF_PERICENTER>32.7636</ARG_OF_PERICENTER><MEAN_ANOMALY>66.2495</MEAN_ANOMALY></meanElements><tleParameters><EPHEMERIS_TYPE>0</EPHEMERIS_TYPE><CLASSIFICATION_TYPE>U</CLASSIFICATION_TYPE><NORAD_CAT_ID>64818</NORAD_CAT_ID><ELEMENT_SET_NO>999</ELEMENT_SET_NO><REV_AT_EPOCH>581</REV_AT_EPOCH><BSTAR>.25492754E-2</BSTAR><MEAN_MOTION_DOT>.20744E-3</MEAN_MOTION_DOT><MEAN_MOTION_DDOT>0</MEAN_MOTION_DDOT></tleParameters></data></segment></body></omm>
<omm id="CCSDS_OMM_VERS" version="2.0">
<header><CREATION_DATE/><ORIGINATOR/></header><body><segment><metadata><OBJECT_NAME>KUIPER-00072</OBJECT_NAME><OBJECT_ID>2025-151D</OBJECT_ID><CENTER_NAME>EARTH</CENTER_NAME><REF_FRAME>TEME</REF_FRAME><TIME_SYSTEM>UTC</TIME_SYSTEM><MEAN_ELEMENT_THEORY>SGP4</MEAN_ELEMENT_THEORY></metadata><data><meanElements><EPOCH>2025-09-21T09:58:07.545504</EPOCH><MEAN_MOTION>15.37062848</MEAN_MOTION><ECCENTRICITY>.00070542</ECCENTRICITY><INCLINATION>51.8782</INCLINATION><RA_OF_ASC_NODE>323.6663</RA_OF_ASC_NODE><ARG_OF_PERICENTER>34.2585</ARG_OF_PERICENTER><MEAN_ANOMALY>325.8856</MEAN_ANOMALY></meanElements><tleParameters><EPHEMERIS_TYPE>0</EPHEMERIS_TYPE><CLASSIFICATION_TYPE>U</CLASSIFICATION_TYPE><NORAD_CAT_ID>64819</NORAD_CAT_ID><ELEMENT_SET_NO>999</ELEMENT_SET_NO><REV_AT_EPOCH>1031</REV_AT_EPOCH><BSTAR>.12067826E-2</BSTAR><MEAN_MOTION_DOT>.44351E-3</MEAN_MOTION_DOT><MEAN_MOTION_DDOT>0</MEAN_MOTION_DDOT></tleParameters></data></segment></body></omm>
<omm id="CCSDS_OMM_VERS" version="2.0">
<header><CREATION_DATE/><ORIGINATOR/></header><body><segment><metadata><OBJECT_NAME>KUIPER-00073</OBJECT_NAME><OBJECT_ID>2025-151E</OBJECT_ID><CENTER_NAME>EARTH</CENTER_NAME><REF_FRAME>TEME</REF_FRAME><TIME_SYSTEM>UTC</TIME_SYSTEM><MEAN_ELEMENT_THEORY>SGP4</MEAN_ELEMENT_THEORY></metadata><data><meanElements><EPOCH>2025-09-21T14:00:01.999872</EPOCH><MEAN_MOTION>14.84418433</MEAN_MOTION><ECCENTRICITY>.00140842</ECCENTRICITY><INCLINATION>51.8992</INCLINATION><RA_OF_ASC_NODE>330.9174</RA_OF_ASC_NODE><ARG_OF_PERICENTER>50.8066</ARG_OF_PERICENTER><MEAN_ANOMALY>211.2158</MEAN_ANOMALY></meanElements><tleParameters><EPHEMERIS_TYPE>0</EPHEMERIS_TYPE><CLASSIFICATION_TYPE>U</CLASSIFICATION_TYPE><NORAD_CAT_ID>64820</NORAD_CAT_ID><ELEMENT_SET_NO>999</ELEMENT_SET_NO><REV_AT_EPOCH>514</REV_AT_EPOCH><BSTAR>.2782208E-2</BSTAR><MEAN_MOTION_DOT>.23513E-3</MEAN_MOTION_DOT><MEAN_MOTION_DDOT>0</MEAN_MOTION_DDOT></tleParameters></data></segment></body></omm>
<omm id="CCSDS_OMM_VERS" version="2.0">
<header><CREATION_DATE/><ORIGINATOR/></header><body><segment><metadata><OBJECT_NAME>KUIPER-00074</OBJECT_NAME><OBJECT_ID>2025-151F</OBJECT_ID><CENTER_NAME>EARTH</CENTER_NAME><REF_FRAME>TEME</REF_FRAME><TIME_SYSTEM>UTC</TIME_SYSTEM><MEAN_ELEMENT_THEORY>SGP4</MEAN_ELEMENT_THEORY></metadata><data><meanElements><EPOCH>2025-09-21T14:00:01.999872</EPOCH><MEAN_MOTION>15.22470772</MEAN_MOTION><ECCENTRICITY>.00120374</ECCENTRICITY><INCLINATION>51.8827</INCLINATION><RA_OF_ASC_NODE>323.5289</RA_OF_ASC_NODE><ARG_OF_PERICENTER>55.0105</ARG_OF_PERICENTER><MEAN_ANOMALY>157.0954</MEAN_ANOMALY></meanElements><tleParameters><EPHEMERIS_TYPE>0</EPHEMERIS_TYPE><CLASSIFICATION_TYPE>U</CLASSIFICATION_TYPE><NORAD_CAT_ID>64821</NORAD_CAT_ID><ELEMENT_SET_NO>999</ELEMENT_SET_NO><REV_AT_EPOCH>488</REV_AT_EPOCH><BSTAR>-.25606665E-1</BSTAR><MEAN_MOTION_DOT>-.565299E-2</MEAN_MOTION_DOT><MEAN_MOTION_DDOT>0</MEAN_MOTION_DDOT></tleParameters></data></segment></body></omm>
<omm id="CCSDS_OMM_VERS" version="2.0">
<header><CREATION_DATE/><ORIGINATOR/></header><body><segment><metadata><OBJECT_NAME>KUIPER-00075</OBJECT_NAME><OBJECT_ID>2025-151G</OBJECT_ID><CENTER_NAME>EARTH</CENTER_NAME><REF_FRAME>TEME</REF_FRAME><TIME_SYSTEM>UTC</TIME_SYSTEM><MEAN_ELEMENT_THEORY>SGP4</MEAN_ELEMENT_THEORY></metadata><data><meanElements><EPOCH>2025-09-21T10:53:13.752960</EPOCH><MEAN_MOTION>15.37772416</MEAN_MOTION><ECCENTRICITY>.00062273</ECCENTRICITY><INCLINATION>51.8782</INCLINATION><RA_OF_ASC_NODE>323.1927</RA_OF_ASC_NODE><ARG_OF_PERICENTER>19.3435</ARG_OF_PERICENTER><MEAN_ANOMALY>340.7787</MEAN_ANOMALY></meanElements><tleParameters><EPHEMERIS_TYPE>0</EPHEMERIS_TYPE><CLASSIFICATION_TYPE>U</CLASSIFICATION_TYPE><NORAD_CAT_ID>64822</NORAD_CAT_ID><ELEMENT_SET_NO>999</ELEMENT_SET_NO><REV_AT_EPOCH>1032</REV_AT_EPOCH><BSTAR>.85545134E-3</BSTAR><MEAN_MOTION_DOT>.32002E-3</MEAN_MOTION_DOT><MEAN_MOTION_DDOT>0</MEAN_MOTION_DDOT></tleParameters></data></segment></body></omm>
<omm id="CCSDS_OMM_VERS" version="2.0">
<header><CREATION_DATE/><ORIGINATOR/></header><body><segment><metadata><OBJECT_NAME>KUIPER-00076</OBJECT_NAME><OBJECT_ID>2025-151H</OBJECT_ID><CENTER_NAME>EARTH</CENTER_NAME><REF_FRAME>TEME</REF_FRAME><TIME_SYSTEM>UTC</TIME_SYSTEM><MEAN_ELEMENT_THEORY>SGP4</MEAN_ELEMENT_THEORY></metadata><data><meanElements><EPOCH>2025-09-21T14:00:01.999872</EPOCH><MEAN_MOTION>15.16094510</MEAN_MOTION><ECCENTRICITY>.00065868</ECCENTRICITY><INCLINATION>51.8809</INCLINATION><RA_OF_ASC_NODE>324.4547</RA_OF_ASC_NODE><ARG_OF_PERICENTER>43.3104</ARG_OF_PERICENTER><MEAN_ANOMALY>127.3985</MEAN_ANOMALY></meanElements><tleParameters><EPHEMERIS_TYPE>0</EPHEMERIS_TYPE><CLASSIFICATION_TYPE>U</CLASSIFICATION_TYPE><NORAD_CAT_ID>64823</NORAD_CAT_ID><ELEMENT_SET_NO>999</ELEMENT_SET_NO><REV_AT_EPOCH>455</REV_AT_EPOCH><BSTAR>-.23114191E-1</BSTAR><MEAN_MOTION_DOT>-.425993E-2</MEAN_MOTION_DOT><MEAN_MOTION_DDOT>0</MEAN_MOTION_DDOT></tleParameters></data></segment></body></omm>
<omm id="CCSDS_OMM_VERS" version="2.0">
<header><CREATION_DATE/><ORIGINATOR/></header><body><segment><metadata><OBJECT_NAME>KUIPER-00077</OBJECT_NAME><OBJECT_ID>2025-151J</OBJECT_ID><CENTER_NAME>EARTH</CENTER_NAME><REF_FRAME>TEME</REF_FRAME><TIME_SYSTEM>UTC</TIME_SYSTEM><MEAN_ELEMENT_THEORY>SGP4</MEAN_ELEMENT_THEORY></metadata><data><meanElements><EPOCH>2025-09-21T14:00:01.999872</EPOCH><MEAN_MOTION>15.01158047</MEAN_MOTION><ECCENTRICITY>.00074904</ECCENTRICITY><INCLINATION>51.8933</INCLINATION><RA_OF_ASC_NODE>326.9531</RA_OF_ASC_NODE><ARG_OF_PERICENTER>3.2034</ARG_OF_PERICENTER><MEAN_ANOMALY>40.3613</MEAN_ANOMALY></meanElements><tleParameters><EPHEMERIS_TYPE>0</EPHEMERIS_TYPE><CLASSIFICATION_TYPE>U</CLASSIFICATION_TYPE><NORAD_CAT_ID>64824</NORAD_CAT_ID><ELEMENT_SET_NO>999</ELEMENT_SET_NO><REV_AT_EPOCH>538</REV_AT_EPOCH><BSTAR>-.69944315E-1</BSTAR><MEAN_MOTION_DOT>-.843964E-2</MEAN_MOTION_DOT><MEAN_MOTION_DDOT>0</MEAN_MOTION_DDOT></tleParameters></data></segment></body></omm>
<omm id="CCSDS_OMM_VERS" version="2.0">
<header><CREATION_DATE/><ORIGINATOR/></header><body><segment><metadata><OBJECT_NAME>KUIPER-00078</OBJECT_NAME><OBJECT_ID>2025-151K</OBJECT_ID><CENTER_NAME>EARTH</CENTER_NAME><REF_FRAME>TEME</REF_FRAME><TIME_SYSTEM>UTC</TIME_SYSTEM><MEAN_ELEMENT_THEORY>SGP4</MEAN_ELEMENT_THEORY></metadata><data><meanElements><EPOCH>2025-09-21T14:00:01.999872</EPOCH><MEAN_MOTION>15.09721773</MEAN_MOTION><ECCENTRICITY>.00098784</ECCENTRICITY><INCLINATION>51.8853</INCLINATION><RA_OF_ASC_NODE>325.5652</RA_OF_ASC_NODE><ARG_OF_PERICENTER>72.5128</ARG_OF_PERICENTER><MEAN_ANOMALY>280.1629</MEAN_ANOMALY></meanElements><tleParameters><EPHEMERIS_TYPE>0</EPHEMERIS_TYPE><CLASSIFICATION_TYPE>U</CLASSIFICATION_TYPE><NORAD_CAT_ID>64825</NORAD_CAT_ID><ELEMENT_SET_NO>999</ELEMENT_SET_NO><REV_AT_EPOCH>591</REV_AT_EPOCH><BSTAR>-.93880334E-1</BSTAR><MEAN_MOTION_DOT>-.1408305E-1</MEAN_MOTION_DOT><MEAN_MOTION_DDOT>0</MEAN_MOTION_DDOT></tleParameters></data></segment></body></omm>

</ndm>
