KUIPER-00071            
1 64818U 25151C   25264.58335648  .00020744  00000+0  25493-2 0  9993
2 64818  51.8992 330.9108 0007393  32.7636  66.2495 14.82967750  5811
KUIPER-00072            
1 64819U 25151D   25264.41536511  .00044351  00000+0  12068-2 0  9992
2 64819  51.8782 323.6663 0007054  34.2585 325.8856 15.37062848 10319
KUIPER-00073            
1 64820U 25151E   25264.58335648  .00023513  00000+0  27822-2 0  9991
2 64820  51.8992 330.9174 0014084  50.8066 211.2158 14.84418433  5145
KUIPER-00074            
1 64821U 25151F   25264.58335648 -.00565299  00000+0 -25607-1 0  9994
2 64821  51.8827 323.5289 0012037  55.0105 157.0954 15.22470772  4883
KUIPER-00075            
1 64822U 25151G   25264.45363140  .00032002  00000+0  85545-3 0  9997
2 64822  51.8782 323.1927 0006227  19.3435 340.7787 15.37772416 10329
KUIPER-00076            
1 64823U 25151H   25264.58335648 -.00425993  00000+0 -23114-1 0  9993
2 64823  51.8809 324.4547 0006586  43.3104 127.3985 15.16094510  4556
KUIPER-00077            
1 64824U 25151J   25264.58335648 -.00843964  00000+0 -69944-1 0  9997
2 64824  51.8933 326.9531 0007490   3.2034  40.3613 15.01158047  5381
KUIPER-00078            
1 64825U 25151K   25264.58335648 -.01408305  00000+0 -93880-1 0  9991
2 64825  51.8853 325.5652 0009878  72.5128 280.1629 15.09721773  5917
